[{"OBJECT_NAME":"STARLINK-33871","OBJECT_ID":"2025-101A","EPOCH":"2026-03-09T04:19:45.735744","MEAN_MOTION":15.27590821,"ECCENTRICITY":0.00010471,"INCLINATION":43.0021,"RA_OF_ASC_NODE":1.1587,"ARG_OF_PERICENTER":262.5592,"MEAN_ANOMALY":97.514,"EPHEMERIS_TYPE":0,"CLASSIFICATION_TYPE":"U","NORAD_CAT_ID":63994,"ELEMENT_SET_NO":999,"REV_AT_EPOCH":4690,"BSTAR":0.0014773636,"MEAN_MOTION_DOT":0.00040629,"MEAN_MOTION_DDOT":0},{"OBJECT_NAME":"REAL","OBJECT_ID":"2025-154G","EPOCH":"2026-03-09T17:20:09.670560","MEAN_MOTION":15.28408058,"ECCENTRICITY":0.00018528,"INCLINATION":97.4133,"RA_OF_ASC_NODE":137.2581,"ARG_OF_PERICENTER":118.5876,"MEAN_ANOMALY":241.555,"EPHEMERIS_TYPE":0,"CLASSIFICATION_TYPE":"U","NORAD_CAT_ID":64875,"ELEMENT_SET_NO":999,"REV_AT_EPOCH":3483,"BSTAR":0.0008290401,"MEAN_MOTION_DOT":0.00022901,"MEAN_MOTION_DDOT":0}]
